# From MPC109143
C/2015 X7 (ATLAS),e,57.5605,139.9267,348.3999,17329,0.0000004,0.99978751,0.0000,07/29.2328/2016,2000,g  9.0,4.0
# From MPC107048
C/2015 X8 (NEOWISE),e,155.1800,191.1611,20.3913,19.74499,0.0112336,0.94007764,20.4856,10/21.0/2020,2000,g 16.0,4.0
# From MPC109143
C/2015 Y1 (LINEAR),e,71.1654,135.8174,24.6680,245.2829,0.0002566,0.98974080,0.0000,05/13.6966/2016,2000,g 12.0,4.0
# From MPC119995
C/2016 A1 (PANSTARRS),h,11/22.6263/2017,121.2052,128.2073,10.2485,1.001429,5.323371,2000,6.0,4.0
# From MPC100282
P/2016 A2 (Christensen),e,26.4070,291.6139,141.5397,4.750669,0.0951857,0.27079712,185.6947,10/21.0/2020,2000,g 11.5,4.0
# From MPC115881
P/2016 A3 (PANSTARRS),e,8.5102,187.2667,340.9748,7.890087,0.0444715,0.38736867,56.5082,10/21.0/2020,2000,g 10.0,4.0
# From MPC109143
C/2016 A6 (PANSTARRS),e,120.9355,300.3769,141.0216,204.6861,0.0003366,0.98826402,0.0000,11/06.5446/2015,2000,g 15.0,4.0
# From MPC102098
P/2016 A7 (PANSTARRS),e,16.6218,221.4863,352.6279,5.031694,0.0873238,0.56526678,148.4892,10/21.0/2020,2000,g 16.0,4.0
# From MPC106345
C/2016 A8 (LINEAR),e,148.2430,111.3367,130.4061,34.30425,0.0049055,0.94494883,7.4256,10/21.0/2020,2000,g 12.0,4.0
# From MPC107048
C/2016 B1 (NEOWISE),e,50.4556,231.9988,8.6827,441.0798,0.0001064,0.99271041,0.0000,12/04.6443/2016,2000,g  9.5,4.0
# From MPC109143
P/2016 BA14 (PANSTARRS),e,18.8940,180.5307,351.8948,3.024864,0.1873464,0.66520816,315.1627,10/21.0/2020,2000,g 21.0,4.0
# From MPC110494
C/2016 C1 (PANSTARRS),h,02/18.5288/2016,56.2298,181.8139,328.7393,1.001968,8.464997,2000,5.5,4.0
# From MPC101098
C/2016 C2 (NEOWISE),e,38.0539,24.4269,214.5671,65.97323,0.0018393,0.97622771,0.0000,04/19.3056/2016,2000,g 16.0,4.0
# From MPC110494
C/2016 E1 (PANSTARRS),h,06/04.3353/2017,131.8885,233.0744,47.4750,1.006105,8.179430,2000,6.5,4.0
# From MPC 99821
C/2016 E2 (Kowalski),e,135.8931,186.9028,321.9532,140.3318,0.0005929,0.99234174,0.0000,02/07.1082/2016,2000,g 20.0,4.0
# From MPC102098
P/2016 G1 (PANSTARRS),e,10.9682,204.0556,111.2607,2.582887,0.2374357,0.21106716,323.8286,10/21.0/2020,2000,g 14.0,4.0
# From MPEC 2017-D91
P/2016 J1-A (PANSTARRS),e,14.3253,199.8181,46.9052,3.173936,0.1743038,0.22811749,275.0460,10/21.0/2020,2000,g 16.5,4.0
# From MPEC 2017-A77
P/2016 J1-B (PANSTARRS),e,14.3281,199.8229,46.7964,3.173565,0.1743343,0.22796844,275.1689,10/21.0/2020,2000,g 17.0,4.0
# From MPC101099
C/2016 J2 (Denneau),e,130.3315,186.4036,318.6512,643.6107,0.0000604,0.99763865,0.0000,04/12.3828/2016,2000,g 17.0,4.0
# From MPC102099
C/2016 KA (Catalina),e,104.6913,317.5060,63.2137,11196,0.0000008,0.99951706,0.0000,02/02.6567/2016,2000,g  8.5,4.0
# From MPC104792
C/2016 K1 (LINEAR),h,07/13.4413/2016,90.9344,325.6182,18.3021,1.000076,2.294911,2000,13.0,4.0
# From MPC119995
C/2016 M1 (PANSTARRS),e,90.9928,92.2087,209.8929,5941,0.0000022,0.99962759,0.0000,08/10.3594/2018,2000,g  5.0,4.0
# From MPC115881
C/2016 N4 (MASTER),e,72.6110,353.9970,55.9394,2590,0.0000075,0.99876545,0.0000,09/16.5669/2017,2000,g  8.5,4.0
# From MPC119995
C/2016 N6 (PANSTARRS),e,105.8409,298.9895,162.7364,1546,0.0000162,0.99827496,0.0000,07/18.0488/2018,2000,g  7.0,4.0
# From MPC102099
P/2016 P1 (PANSTARRS),e,24.4560,319.5642,270.0726,3.194208,0.1726471,0.28924619,319.9147,10/21.0/2020,2000,g 15.0,4.0
# From MPC102099
C/2016 P4 (PANSTARRS),e,29.8805,320.7286,356.2039,406.6761,0.0001202,0.98550338,0.0000,10/18.3436/2016,2000,g 10.5,4.0
# From MPC118093
C/2016 Q2 (PANSTARRS),h,05/11.6870/2021,109.3887,322.2978,84.5135,1.000004,7.082000,2000,6.0,4.0
# From MPC102955
C/2016 Q4 (Kowalski),e,7.2568,271.2881,99.4223,16.91964,0.0141618,0.58120316,14.1284,10/21.0/2020,2000,g  7.0,4.0
# From MPC119995
C/2016 R2 (PANSTARRS),e,58.2303,80.5647,33.1686,531.0476,0.0000805,0.99509907,0.0000,05/09.2032/2018,2000,g  7.0,4.0
# From MPC102099
C/2016 R3 (Borisov),e,53.0377,78.7105,118.1883,199.1036,0.0003508,0.99772586,0.0000,10/10.2552/2016,2000,g 18.0,4.0
# From MPC109144
P/2016 R4 (Gibbs),e,10.8717,168.2749,174.0152,5.331556,0.0800614,0.47616982,124.2784,10/21.0/2020,2000,g 12.5,4.0
# From MPC105543
P/2016 S1 (PANSTARRS),e,94.6662,227.5377,273.2753,8.278704,0.0413771,0.71004655,54.4068,10/21.0/2020,2000,g 12.0,4.0
# From MPC105238
C/2016 T1 (Matheny),e,129.8492,56.3081,137.4449,124.4650,0.0007098,0.98148237,0.0000,02/01.3236/2017,2000,g 14.5,4.0
# From MPC107685
C/2016 T2 (Matheny),e,81.3863,339.1696,92.2254,99.18282,0.0009978,0.98079042,0.0000,12/29.1989/2016,2000,g 14.5,4.0
# From MPC110082
C/2016 T3 (PANSTARRS),e,22.6798,271.7345,194.6504,132.0545,0.0006495,0.97994249,0.0000,09/06.4728/2017,2000,g 10.5,4.0
# From MPC103847
C/2016 U1 (NEOWISE),h,01/13.9154/2017,46.3422,61.5160,162.8262,1.000405,0.322770,2000,17.0,4.0
# From MPC106345
C/2016 VZ18 (PANSTARRS),e,23.9787,98.9205,36.4149,165.4172,0.0004633,0.99447179,0.0000,03/05.6962/2017,2000,g 19.5,4.0
# From MPC106345
P/2016 WM48 (Lemmon),e,117.4390,59.9026,36.0823,8.166307,0.0422343,0.78394050,56.3862,10/21.0/2020,2000,g 15.0,4.0
# From MPC119995
C/2016 X1 (Lemmon),e,26.4534,256.4129,224.5075,1316,0.0000206,0.99425364,0.0000,04/28.7548/2019,2000,g  6.0,4.0
# From MPC108594
C/2017 A1 (PANSTARRS),e,49.7919,121.0449,2.0300,76.47248,0.0014738,0.97003917,0.0000,05/16.2507/2017,2000,g 13.0,4.0
# From MPC108594
C/2017 A3 (Elenin),e,98.5327,97.9020,304.0152,43.46208,0.0034398,0.91148041,4.6753,10/21.0/2020,2000,g  9.5,4.0
# From MPC114598
C/2017 AB5 (PANSTARRS),e,32.4388,42.6465,78.3387,2457,0.0000081,0.99625062,0.0000,02/15.7083/2018,2000,g  5.5,4.0
# From MPC119995
C/2017 B3 (LINEAR),h,02/02.6159/2019,54.1713,2.1797,284.7899,1.001741,3.922636,2000,6.0,4.0
# From MPC103847
P/2017 B4 (PANSTARRS),e,20.0584,121.4578,11.0197,4.410520,0.1064068,0.36495152,359.9130,01/05.0/2017,2000,g 14.5,4.0
# From MPC104793
C/2017 C1 (NEOWISE),e,65.7558,357.5307,110.0871,20.59305,0.0105469,0.92716999,14.4656,10/21.0/2020,2000,g 18.0,4.0
# From MPC107685
C/2017 C2 (PANSTARRS),e,118.5866,249.7867,138.6090,96.54354,0.0010390,0.97489967,0.0000,01/21.5353/2017,2000,g 14.0,4.0
# From MPC104793
P/2017 D1 (Fuls),e,20.7566,82.1801,8.0658,4.829900,0.0928532,0.43635276,146.6620,10/21.0/2020,2000,g 14.0,4.0
# From MPC112391
C/2017 D2 (Barros),e,31.2572,330.9616,334.5064,4114,0.0000037,0.99939479,0.0000,07/14.8862/2017,2000,g 11.0,4.0
# From MPC114598
C/2017 D3 (ATLAS),h,04/27.3579/2017,125.5834,186.6703,340.8602,1.002170,4.973204,2000,8.0,4.0
# From MPC110495
P/2017 D4 (PANSTARRS),e,10.5296,264.9383,212.2964,7.564589,0.0473725,0.62839912,71.3698,10/21.0/2020,2000,g 13.0,4.0
# From MPC104794
C/2017 D5 (PANSTARRS),e,131.0534,92.7235,287.7440,114.6358,0.0008030,0.98115335,0.0000,01/09.5195/2017,2000,g 16.0,4.0
# From MPC106346
C/2017 E1 (Borisov),h,04/10.5769/2017,14.5699,142.5799,152.6741,1.003076,0.901760,2000,14.0,4.0
# From MPC109144
C/2017 E2 (Tsuchinshan),e,79.0696,11.6062,89.3680,21.53115,0.0098651,0.89083068,16.0155,10/21.0/2020,2000,g 11.5,4.0
# From MPC115882
C/2017 E3 (PANSTARRS),h,06/08.0224/2017,70.6355,220.7423,334.5180,1.006727,5.938070,2000,6.5,4.0
# From MPC105239
C/2017 E4 (Lovejoy),h,04/23.6007/2017,88.0855,223.0322,87.0654,1.001500,0.491118,2000,17.0,4.0
# From MPC105239
C/2017 E5 (Lemmon),e,122.6669,206.3430,306.9256,395.1002,0.0001255,0.99547390,0.0000,06/10.7013/2016,2000,g 13.0,4.0
# From MPC111769
C/2017 F1 (Lemmon),h,11/30.2535/2017,146.4643,158.7857,64.7625,1.003648,4.496449,2000,10.5,4.0
# From MPC114598
C/2017 F2 (PANSTARRS),h,11/27.4619/2017,42.5200,38.6736,135.0379,1.003784,6.931891,2000,7.5,4.0
# From MPC104794
P/2017 G1 (PANSTARRS),e,4.7741,249.6278,224.5471,7.288450,0.0500900,0.65298109,82.0148,10/21.0/2020,2000,g 13.5,4.0
# From MPC108595
P/2017 G2 (PANSTARRS),e,47.9468,79.7890,105.5649,8.069510,0.0429965,0.64826003,52.7729,10/21.0/2020,2000,g 13.0,4.0
# From MPC109144
C/2017 G3 (PANSTARRS),e,159.0561,279.4783,73.1358,312.9325,0.0001780,0.99172426,0.0000,04/15.7223/2017,2000,g 14.0,4.0
# From MPC115882
C/2017 K1 (PANSTARRS),h,03/17.3961/2018,154.0134,225.6639,4.3978,1.002132,7.289503,2000,7.0,4.0
# From MPC119995
C/2017 K2 (PANSTARRS),h,12/19.8679/2022,87.5466,88.2563,236.1747,1.000463,1.798543,2000,1.5,4.0
# From MPC106346
P/2017 K3 (Gasparovic),e,4.2738,354.2894,253.4717,5.581745,0.0747393,0.58060779,92.5689,10/21.0/2020,2000,g 14.5,4.0
# From MPC114598
C/2017 K4 (ATLAS),e,16.6804,298.8689,15.2325,28.50340,0.0064768,0.90699879,6.5840,10/21.0/2020,2000,g 10.0,4.0
# From MPC119995
C/2017 K5 (PANSTARRS),h,03/25.9969/2020,82.2454,102.3738,171.9566,1.006706,7.679513,2000,5.0,4.0
# From MPC114599
C/2017 K6 (Jacques),e,57.2494,85.0379,303.7578,1067,0.0000283,0.99812725,0.0000,01/03.3433/2018,2000,g 11.0,4.0
# From MPC110083
C/2017 M3 (PANSTARRS),e,77.5508,7.0136,110.3434,167.1120,0.0004562,0.97212966,0.0000,04/28.1295/2017,2000,g 10.5,4.0
# From MPC118093
C/2017 M4 (ATLAS),h,01/17.9068/2019,105.6469,65.8730,167.5843,1.001207,3.252470,2000,6.0,4.0
# From MPC118841
C/2017 M5 (TOTAS),h,06/04.0875/2018,15.8787,216.2805,92.7503,1.005326,5.993346,2000,6.5,4.0
# From MPC114599
C/2017 O1 (ASASSN),e,39.8986,25.7635,20.8464,357.0145,0.0001461,0.99581263,0.0000,10/14.8438/2017,2000,g 11.0,4.0
# From MPC114599
P/2017 P1 (PANSTARRS),e,7.6971,221.4002,122.2702,7.893559,0.0444421,0.31065198,38.0038,10/21.0/2020,2000,g 10.0,4.0
# From MPC114599
C/2017 P2 (PANSTARRS),e,50.0551,165.4902,132.3543,2094,0.0000103,0.99882269,0.0000,12/06.6701/2017,2000,g 10.0,4.0
# From MPC114599
P/2017 R1 (PANSTARRS),e,2.5739,143.6182,178.5709,4.135073,0.1172140,0.19563644,151.2164,10/21.0/2020,2000,g 13.5,4.0
# From MPC108595
C/2017 S2 (PANSTARRS),e,12.6780,62.4029,305.9552,20.53399,0.0105924,0.82412418,12.1634,10/21.0/2020,2000,g 13.0,4.0
# From MPC114599
C/2017 S3 (PANSTARRS),h,08/16.0123/2018,99.1345,171.1834,255.8403,1.000053,0.208149,2000,11.0,4.0
# From MPC114599
P/2017 S5 (ATLAS),e,11.8508,252.3772,99.8517,3.168391,0.1747616,0.31406779,206.2778,10/21.0/2020,2000,g 14.0,4.0
# From MPC109591
C/2017 S6 (Catalina),h,02/26.5007/2018,152.8674,131.0416,134.8084,1.000658,1.543372,2000,12.5,4.0
# From MPC114599
